GLOBALSTAR M084         
1 38040U 11080A   24175.84671390 -.00000089  00000+0  83508-4 0  9997
2 38040  52.0023  59.3918 0000837  46.6994  31.9975 12.62263638577417
GLOBALSTAR M080         
1 38041U 11080B   24175.89966723 -.00000054  00000+0  27855-3 0  9994
2 38041  52.0074  60.7108 0000705  30.1649  49.7484 12.62262198577546
GLOBALSTAR M086         
1 38045U 11080F   24175.89921931 -.00000098  00000+0  32990-4 0  9995
2 38045  51.9916  10.9147 0000363 172.7639 325.1291 12.62263514578311
GLOBALSTAR M097         
1 39072U 13005A   24175.73752991 -.00000091  00000+0  71051-4 0  9990
2 39072  52.0054 285.5945 0000783 143.2993 216.7927 12.62263786525544
GLOBALSTAR M093         
1 39073U 13005B   24175.79007046 -.00000082  00000+0  12147-3 0  9991
2 39073  51.9818 279.3100 0000825 149.9682 210.1232 12.62275030525508
